[{"OBJECT_NAME":"ONEWEB-0211","OBJECT_ID":"2021-045A","EPOCH":"2025-10-07T02:42:23.467104","MEAN_MOTION":13.16086007,"ECCENTRICITY":0.00017697,"INCLINATION":87.8996,"RA_OF_ASC_NODE":309.6338,"ARG_OF_PERICENTER":104.6904,"MEAN_ANOMALY":255.4423,"EPHEMERIS_TYPE":0,"CLASSIFICATION_TYPE":"U","NORAD_CAT_ID":48767,"ELEMENT_SET_NO":999,"REV_AT_EPOCH":21115,"BSTAR":-0.00024417901,"MEAN_MOTION_DOT":-8.0e-7,"MEAN_MOTION_DDOT":0},{"OBJECT_NAME":"ONEWEB-0223","OBJECT_ID":"2021-045B","EPOCH":"2025-10-07T03:36:46.911744","MEAN_MOTION":13.1554837,"ECCENTRICITY":0.00017078,"INCLINATION":87.8985,"RA_OF_ASC_NODE":309.6819,"ARG_OF_PERICENTER":109.7278,"MEAN_ANOMALY":250.4036,"EPHEMERIS_TYPE":0,"CLASSIFICATION_TYPE":"U","NORAD_CAT_ID":48768,"ELEMENT_SET_NO":999,"REV_AT_EPOCH":21113,"BSTAR":0.00031701563,"MEAN_MOTION_DOT":1.32e-6,"MEAN_MOTION_DDOT":0},{"OBJECT_NAME":"ONEWEB-0230","OBJECT_ID":"2021-045C","EPOCH":"2025-10-07T02:55:41.733984","MEAN_MOTION":13.15546958,"ECCENTRICITY":0.00017419,"INCLINATION":87.8981,"RA_OF_ASC_NODE":309.7199,"ARG_OF_PERICENTER":90.8384,"MEAN_ANOMALY":269.2946,"EPHEMERIS_TYPE":0,"CLASSIFICATION_TYPE":"U","NORAD_CAT_ID":48769,"ELEMENT_SET_NO":999,"REV_AT_EPOCH":21139,"BSTAR":-0.00032359274,"MEAN_MOTION_DOT":-1.09e-6,"MEAN_MOTION_DDOT":0},{"OBJECT_NAME":"ONEWEB-0237","OBJECT_ID":"2021-045D","EPOCH":"2025-10-07T02:39:43.987392","MEAN_MOTION":13.15545621,"ECCENTRICITY":0.00015879,"INCLINATION":87.8987,"RA_OF_ASC_NODE":309.7192,"ARG_OF_PERICENTER":103.4895,"MEAN_ANOMALY":256.6413,"EPHEMERIS_TYPE":0,"CLASSIFICATION_TYPE":"U","NORAD_CAT_ID":48770,"ELEMENT_SET_NO":999,"REV_AT_EPOCH":21111,"BSTAR":0.00046688623,"MEAN_MOTION_DOT":1.89e-6,"MEAN_MOTION_DDOT":0},{"OBJECT_NAME":"ONEWEB-0235","OBJECT_ID":"2021-045E","EPOCH":"2025-10-07T03:52:45.251904","MEAN_MOTION":13.15547356,"ECCENTRICITY":0.000164,"INCLINATION":87.8989,"RA_OF_ASC_NODE":309.6808,"ARG_OF_PERICENTER":109.9518,"MEAN_ANOMALY":250.1789,"EPHEMERIS_TYPE":0,"CLASSIFICATION_TYPE":"U","NORAD_CAT_ID":48771,"ELEMENT_SET_NO":999,"REV_AT_EPOCH":21111,"BSTAR":-0.00011973714,"MEAN_MOTION_DOT":-3.2e-7,"MEAN_MOTION_DDOT":0},{"OBJECT_NAME":"ONEWEB-0242","OBJECT_ID":"2021-045F","EPOCH":"2025-10-07T03:43:36.448608","MEAN_MOTION":13.15546605,"ECCENTRICITY":0.00016596,"INCLINATION":87.8992,"RA_OF_ASC_NODE":309.6702,"ARG_OF_PERICENTER":96.2318,"MEAN_ANOMALY":263.9002,"EPHEMERIS_TYPE":0,"CLASSIFICATION_TYPE":"U","NORAD_CAT_ID":48772,"ELEMENT_SET_NO":999,"REV_AT_EPOCH":21115,"BSTAR":0.00031104208,"MEAN_MOTION_DOT":1.3e-6,"MEAN_MOTION_DDOT":0},{"OBJECT_NAME":"ONEWEB-0241","OBJECT_ID":"2021-045G","EPOCH":"2025-10-07T03:25:21.710496","MEAN_MOTION":13.1554615,"ECCENTRICITY":0.00019494,"INCLINATION":87.8979,"RA_OF_ASC_NODE":309.7174,"ARG_OF_PERICENTER":109.115,"MEAN_ANOMALY":251.0191,"EPHEMERIS_TYPE":0,"CLASSIFICATION_TYPE":"U","NORAD_CAT_ID":48773,"ELEMENT_SET_NO":999,"REV_AT_EPOCH":21106,"BSTAR":0.000351737,"MEAN_MOTION_DOT":1.45e-6,"MEAN_MOTION_DDOT":0},{"OBJECT_NAME":"ONEWEB-0243","OBJECT_ID":"2021-045H","EPOCH":"2025-10-07T07:50:02.234400","MEAN_MOTION":13.15547776,"ECCENTRICITY":0.00015687,"INCLINATION":87.8994,"RA_OF_ASC_NODE":309.6857,"ARG_OF_PERICENTER":104.321,"MEAN_ANOMALY":255.8095,"EPHEMERIS_TYPE":0,"CLASSIFICATION_TYPE":"U","NORAD_CAT_ID":48774,"ELEMENT_SET_NO":999,"REV_AT_EPOCH":21111,"BSTAR":0.00023788744,"MEAN_MOTION_DOT":1.02e-6,"MEAN_MOTION_DDOT":0},{"OBJECT_NAME":"ONEWEB-0222","OBJECT_ID":"2021-045J","EPOCH":"2025-10-07T07:26:05.747136","MEAN_MOTION":13.15548361,"ECCENTRICITY":0.00018095,"INCLINATION":87.8991,"RA_OF_ASC_NODE":309.641,"ARG_OF_PERICENTER":99.9154,"MEAN_ANOMALY":260.2181,"EPHEMERIS_TYPE":0,"CLASSIFICATION_TYPE":"U","NORAD_CAT_ID":48775,"ELEMENT_SET_NO":999,"REV_AT_EPOCH":21115,"BSTAR":0.00051430555,"MEAN_MOTION_DOT":2.06e-6,"MEAN_MOTION_DDOT":0},{"OBJECT_NAME":"ONEWEB-0244","OBJECT_ID":"2021-045K","EPOCH":"2025-10-07T02:35:08.964960","MEAN_MOTION":13.15547138,"ECCENTRICITY":0.00017588,"INCLINATION":87.8997,"RA_OF_ASC_NODE":309.6651,"ARG_OF_PERICENTER":98.5365,"MEAN_ANOMALY":261.5965,"EPHEMERIS_TYPE":0,"CLASSIFICATION_TYPE":"U","NORAD_CAT_ID":48776,"ELEMENT_SET_NO":999,"REV_AT_EPOCH":21169,"BSTAR":-0.00025820249,"MEAN_MOTION_DOT":-8.4e-7,"MEAN_MOTION_DDOT":0},{"OBJECT_NAME":"ONEWEB-0247","OBJECT_ID":"2021-045L","EPOCH":"2025-10-07T07:59:09.971520","MEAN_MOTION":13.1554799,"ECCENTRICITY":0.00012926,"INCLINATION":87.8985,"RA_OF_ASC_NODE":309.686,"ARG_OF_PERICENTER":125.8843,"MEAN_ANOMALY":234.2407,"EPHEMERIS_TYPE":0,"CLASSIFICATION_TYPE":"U","NORAD_CAT_ID":48777,"ELEMENT_SET_NO":999,"REV_AT_EPOCH":21116,"BSTAR":-0.00013596419,"MEAN_MOTION_DOT":-3.8e-7,"MEAN_MOTION_DDOT":0},{"OBJECT_NAME":"ONEWEB-0245","OBJECT_ID":"2021-045M","EPOCH":"2025-10-07T07:52:19.850592","MEAN_MOTION":13.15548509,"ECCENTRICITY":0.00019884,"INCLINATION":87.8989,"RA_OF_ASC_NODE":309.651,"ARG_OF_PERICENTER":100.5297,"MEAN_ANOMALY":259.6057,"EPHEMERIS_TYPE":0,"CLASSIFICATION_TYPE":"U","NORAD_CAT_ID":48778,"ELEMENT_SET_NO":999,"REV_AT_EPOCH":21113,"BSTAR":8.1348717e-5,"MEAN_MOTION_DOT":4.3e-7,"MEAN_MOTION_DDOT":0},{"OBJECT_NAME":"ONEWEB-0229","OBJECT_ID":"2021-045N","EPOCH":"2025-10-07T07:45:28.772352","MEAN_MOTION":13.1554714,"ECCENTRICITY":0.00017085,"INCLINATION":87.8988,"RA_OF_ASC_NODE":309.6513,"ARG_OF_PERICENTER":96.1347,"MEAN_ANOMALY":263.9978,"EPHEMERIS_TYPE":0,"CLASSIFICATION_TYPE":"U","NORAD_CAT_ID":48779,"ELEMENT_SET_NO":999,"REV_AT_EPOCH":21116,"BSTAR":7.5959941e-5,"MEAN_MOTION_DOT":4.1e-7,"MEAN_MOTION_DDOT":0},{"OBJECT_NAME":"ONEWEB-0228","OBJECT_ID":"2021-045P","EPOCH":"2025-10-07T03:05:01.790016","MEAN_MOTION":13.1554714,"ECCENTRICITY":0.00017873,"INCLINATION":87.8987,"RA_OF_ASC_NODE":309.6676,"ARG_OF_PERICENTER":98.1086,"MEAN_ANOMALY":262.0247,"EPHEMERIS_TYPE":0,"CLASSIFICATION_TYPE":"U","NORAD_CAT_ID":48780,"ELEMENT_SET_NO":999,"REV_AT_EPOCH":21105,"BSTAR":-2.2767938e-5,"MEAN_MOTION_DOT":4.0e-8,"MEAN_MOTION_DDOT":0},{"OBJECT_NAME":"ONEWEB-0232","OBJECT_ID":"2021-045Q","EPOCH":"2025-10-07T07:56:53.975328","MEAN_MOTION":13.15548752,"ECCENTRICITY":0.00018228,"INCLINATION":87.8989,"RA_OF_ASC_NODE":309.6185,"ARG_OF_PERICENTER":95.1345,"MEAN_ANOMALY":264.9994,"EPHEMERIS_TYPE":0,"CLASSIFICATION_TYPE":"U","NORAD_CAT_ID":48781,"ELEMENT_SET_NO":999,"REV_AT_EPOCH":21140,"BSTAR":-0.00023887871,"MEAN_MOTION_DOT":-7.7e-7,"MEAN_MOTION_DDOT":0},{"OBJECT_NAME":"ONEWEB-0231","OBJECT_ID":"2021-045R","EPOCH":"2025-10-07T03:45:54.505440","MEAN_MOTION":13.15547701,"ECCENTRICITY":0.00015939,"INCLINATION":87.898,"RA_OF_ASC_NODE":309.7037,"ARG_OF_PERICENTER":101.8332,"MEAN_ANOMALY":258.2977,"EPHEMERIS_TYPE":0,"CLASSIFICATION_TYPE":"U","NORAD_CAT_ID":48782,"ELEMENT_SET_NO":999,"REV_AT_EPOCH":21107,"BSTAR":0.00023271991,"MEAN_MOTION_DOT":1.0e-6,"MEAN_MOTION_DDOT":0}]
