ONEWEB-0211             
1 48767U 21045A   25280.11277161 -.00000080  00000+0 -24418-3 0  9998
2 48767  87.8996 309.6338 0001769 104.6904 255.4423 13.16086007211157
ONEWEB-0223             
1 48768U 21045B   25280.15054296  .00000132  00000+0  31702-3 0  9995
2 48768  87.8985 309.6819 0001707 109.7278 250.4036 13.15548370211130
ONEWEB-0230             
1 48769U 21045C   25280.12201081 -.00000109  00000+0 -32359-3 0  9994
2 48769  87.8981 309.7199 0001741  90.8384 269.2946 13.15546958211391
ONEWEB-0237             
1 48770U 21045D   25280.11092578  .00000189  00000+0  46689-3 0  9991
2 48770  87.8987 309.7192 0001587 103.4895 256.6413 13.15545621211113
ONEWEB-0235             
1 48771U 21045E   25280.16163486 -.00000032  00000+0 -11974-3 0  9992
2 48771  87.8989 309.6808 0001640 109.9518 250.1789 13.15547356211114
ONEWEB-0242             
1 48772U 21045F   25280.15528297  .00000130  00000+0  31104-3 0  9991
2 48772  87.8992 309.6702 0001659  96.2318 263.9002 13.15546605211158
ONEWEB-0241             
1 48773U 21045G   25280.14261239  .00000145  00000+0  35174-3 0  9998
2 48773  87.8979 309.7174 0001949 109.1150 251.0191 13.15546150211060
ONEWEB-0243             
1 48774U 21045H   25280.32641475  .00000102  00000+0  23789-3 0  9995
2 48774  87.8994 309.6857 0001568 104.3210 255.8095 13.15547776211112
ONEWEB-0222             
1 48775U 21045J   25280.30978874  .00000206  00000+0  51431-3 0  9990
2 48775  87.8991 309.6410 0001809  99.9154 260.2181 13.15548361211150
ONEWEB-0244             
1 48776U 21045K   25280.10774265 -.00000084  00000+0 -25820-3 0  9996
2 48776  87.8997 309.6651 0001758  98.5365 261.5965 13.15547138211690
ONEWEB-0247             
1 48777U 21045L   25280.33275430 -.00000038  00000+0 -13596-3 0  9998
2 48777  87.8985 309.6860 0001292 125.8843 234.2407 13.15547990211164
ONEWEB-0245             
1 48778U 21045M   25280.32800753  .00000043  00000+0  81349-4 0  9996
2 48778  87.8989 309.6510 0001988 100.5297 259.6057 13.15548509211132
ONEWEB-0229             
1 48779U 21045N   25280.32324968  .00000041  00000+0  75960-4 0  9996
2 48779  87.8988 309.6513 0001708  96.1347 263.9978 13.15547140211164
ONEWEB-0228             
1 48780U 21045P   25280.12849294  .00000004  00000+0 -22768-4 0  9998
2 48780  87.8987 309.6676 0001787  98.1086 262.0247 13.15547140211051
ONEWEB-0232             
1 48781U 21045Q   25280.33118027 -.00000077  00000+0 -23888-3 0  9999
2 48781  87.8989 309.6185 0001822  95.1345 264.9994 13.15548752211403
ONEWEB-0231             
1 48782U 21045R   25280.15688085  .00000100  00000+0  23272-3 0  9998
2 48782  87.8980 309.7037 0001593 101.8332 258.2977 13.15547701211071
